CCSDS_OEM_VERS = 1.0
CREATION_DATE  = 2017-05-11T11:15:11
ORIGINATOR     = GMAT USER

META_START
OBJECT_NAME          = MOPSSat_alt_35785_km_RAAN_90_065
OBJECT_ID            = SatId
CENTER_NAME          = Earth
REF_FRAME            = EME2000
TIME_SYSTEM          = UTC
START_TIME           = 2017-01-01T00:00:00.000
USEABLE_START_TIME   = 2017-01-01T00:00:00.000
USEABLE_STOP_TIME    = 2017-01-02T00:00:00.000
STOP_TIME            = 2017-01-02T00:00:00.000
INTERPOLATION        = Lagrange
INTERPOLATION_DEGREE = 7 
META_STOP


                                                                                   

2017-01-01T21:41:40.000   2.301981141244497e+04   3.508748214042504e+04  -4.059039254956635e+03  -2.520125278206642e+00   1.704744659421131e+00   4.444689653277848e-01
2017-01-01T21:41:50.000   2.299460403998919e+04   3.510452025360129e+04  -4.054593486092534e+03  -2.521349077173510e+00   1.702877884047387e+00   4.446847835461904e-01
2017-01-01T21:42:00.000   2.296938443619191e+04   3.512153969453250e+04  -4.050145560218780e+03  -2.522571535099613e+00   1.701010202893290e+00   4.449003652462936e-01
2017-01-01T21:42:10.000   2.294415261436874e+04   3.513854045423226e+04  -4.045695479683833e+03  -2.523792651339390e+00   1.699141616944918e+00   4.451157103142309e-01
2017-01-01T21:42:20.000   2.291890858787026e+04   3.515552252370342e+04  -4.041243246842339e+03  -2.525012425246504e+00   1.697272127190940e+00   4.453308186360025e-01
2017-01-01T21:42:30.000   2.289365237011280e+04   3.517248589391933e+04  -4.036788864060508e+03  -2.526230856172501e+00   1.695401734624891e+00   4.455456900972347e-01
2017-01-01T21:42:40.000   2.286838397450111e+04   3.518943055587487e+04  -4.032332333702536e+03  -2.527447943470475e+00   1.693530440239450e+00   4.457603245838270e-01
2017-01-01T21:42:50.000   2.284310341476264e+04   3.520635650036507e+04  -4.027873658189519e+03  -2.528663686479159e+00   1.691658245051193e+00   4.459747219791469e-01
2017-01-01T21:43:00.000   2.281781070454285e+04   3.522326371825376e+04  -4.023412839928099e+03  -2.529878084542236e+00   1.689785150070630e+00   4.461888821674341e-01
2017-01-01T21:43:10.000   2.279250585755556e+04   3.524015220037354e+04  -4.018949881336969e+03  -2.531091137001140e+00   1.687911156313325e+00   4.464028050325318e-01
2017-01-01T21:43:20.000   2.276718888700096e+04   3.525702193791437e+04  -4.014484784744237e+03  -2.532302843222974e+00   1.686036264756811e+00   4.466164904628103e-01
2017-01-01T21:43:30.000   2.274185980614600e+04   3.527387292203580e+04  -4.010017552489787e+03  -2.533513202572656e+00   1.684160476383560e+00   4.468299383462542e-01
2017-01-01T21:43:40.000   2.271651862819310e+04   3.529070514395514e+04  -4.005548186902121e+03  -2.534722214419252e+00   1.682283792171271e+00   4.470431485715805e-01
2017-01-01T21:43:50.000   2.269116536660667e+04   3.530751859472685e+04  -4.001076690355944e+03  -2.535929878120137e+00   1.680406213117039e+00   4.472561210254428e-01
2017-01-01T21:44:00.000   2.266580003487114e+04   3.532431326540713e+04  -3.996603065229494e+03  -2.537136193032803e+00   1.678527740219446e+00   4.474688555945173e-01
2017-01-01T21:44:10.000   2.264042264649027e+04   3.534108914705287e+04  -3.992127313904424e+03  -2.538341158514794e+00   1.676648374478507e+00   4.476813521654879e-01
2017-01-01T21:44:20.000   2.261503321523282e+04   3.535784623056281e+04  -3.987649438809119e+03  -2.539544773912293e+00   1.674768116913856e+00   4.478936106230358e-01
2017-01-01T21:44:30.000   2.258963175480227e+04   3.537458450689241e+04  -3.983169442360449e+03  -2.540747038575560e+00   1.672886968540298e+00   4.481056308525611e-01
2017-01-01T21:44:40.000   2.256421827896677e+04   3.539130396696896e+04  -3.978687326986693e+03  -2.541947951852831e+00   1.671004930377425e+00   4.483174127391067e-01
2017-01-01T21:44:50.000   2.253879280098563e+04   3.540800460206902e+04  -3.974203095026386e+03  -2.543147513117422e+00   1.669122003407148e+00   4.485289561721389e-01
2017-01-01T21:45:00.000   2.251335533418270e+04   3.542468640344070e+04  -3.969716748829447e+03  -2.544345721740616e+00   1.667238188616154e+00   4.487402610407646e-01
2017-01-01T21:45:10.000   2.248790589181686e+04   3.544134936238945e+04  -3.965228290734338e+03  -2.545542577097809e+00   1.665353486986326e+00   4.489513272348168e-01
2017-01-01T21:45:20.000   2.246244448741008e+04   3.545799347005975e+04  -3.960737723125914e+03  -2.546738078552834e+00   1.663467899519020e+00   4.491621546420892e-01
2017-01-01T21:45:30.000   2.243697113450431e+04   3.547461871759782e+04  -3.956245048392567e+03  -2.547932225469648e+00   1.661581427217083e+00   4.493727431503975e-01
2017-01-01T21:45:40.000   2.241148584666088e+04   3.549122509615074e+04  -3.951750268926090e+03  -2.549125017212274e+00   1.659694071084789e+00   4.495830926475688e-01
2017-01-01T21:45:50.000   2.238598863770707e+04   3.550781259670921e+04  -3.947253387165197e+03  -2.550316453133497e+00   1.657805832146110e+00   4.497932030194482e-01
2017-01-01T21:46:00.000   2.236047952140453e+04   3.552438121032024e+04  -3.942754405537022e+03  -2.551506532590149e+00   1.655916711420162e+00   4.500030741525954e-01
2017-01-01T21:46:10.000   2.233495851158228e+04   3.554093092800149e+04  -3.938253326480571e+03  -2.552695254936958e+00   1.654026709931042e+00   4.502127059331978e-01
2017-01-01T21:46:20.000   2.230942562155101e+04   3.555746174112103e+04  -3.933750152343453e+03  -2.553882619553814e+00   1.652135828664469e+00   4.504220982518816e-01
2017-01-01T21:46:30.000   2.228388086469011e+04   3.557397364101650e+04  -3.929244885485372e+03  -2.555068625818422e+00   1.650244068611246e+00   4.506312509988862e-01
2017-01-01T21:46:40.000   2.225832425429621e+04   3.559046661909350e+04  -3.924737528251451e+03  -2.556253273113372e+00   1.648351430756047e+00   4.508401640653134e-01
2017-01-01T21:46:50.000   2.223275580398994e+04   3.560694066656024e+04  -3.920228083043952e+03  -2.557436560807071e+00   1.646457916107542e+00   4.510488373397640e-01
2017-01-01T21:47:00.000   2.220717552738044e+04   3.562339577464690e+04  -3.915716552263110e+03  -2.558618488269508e+00   1.644563525673551e+00   4.512572707111169e-01
2017-01-01T21:47:10.000   2.218158343814024e+04   3.563983193455653e+04  -3.911202938320339e+03  -2.559799054868723e+00   1.642668260466585e+00   4.514654640679082e-01
2017-01-01T21:47:20.000   2.215597954998565e+04   3.565624913747976e+04  -3.906687243634775e+03  -2.560978259971860e+00   1.640772121502402e+00   4.516734172985155e-01
2017-01-01T21:47:30.000   2.213036387665053e+04   3.567264737460989e+04  -3.902169470628653e+03  -2.562156102946256e+00   1.638875109798056e+00   4.518811302913511e-01
2017-01-01T21:47:40.000   2.210473643187719e+04   3.568902663714904e+04  -3.897649621725690e+03  -2.563332583159883e+00   1.636977226371228e+00   4.520886029349381e-01
2017-01-01T21:47:50.000   2.207909722932505e+04   3.570538691636725e+04  -3.893127699334994e+03  -2.564507699985592e+00   1.635078472233462e+00   4.522958351186611e-01
2017-01-01T21:48:00.000   2.205344628263131e+04   3.572172820356279e+04  -3.888603705861748e+03  -2.565681452798258e+00   1.633178848394655e+00   4.525028267322615e-01
2017-01-01T21:48:10.000   2.202778360541104e+04   3.573805049006223e+04  -3.884077643707232e+03  -2.566853840974790e+00   1.631278355863065e+00   4.527095776658395e-01
2017-01-01T21:48:20.000   2.200210921119547e+04   3.575435376725870e+04  -3.879549515257944e+03  -2.568024863896882e+00   1.629376995640744e+00   4.529160878103373e-01
2017-01-01T21:48:30.000   2.197642311352422e+04   3.577063802655401e+04  -3.875019322901852e+03  -2.569194520946839e+00   1.627474768730360e+00   4.531223570568085e-01
2017-01-01T21:48:40.000   2.195072532595450e+04   3.578690325935295e+04  -3.870487069030038e+03  -2.570362811507196e+00   1.625571676135890e+00   4.533283852963435e-01
2017-01-01T21:48:50.000   2.192501586208605e+04   3.580314945704593e+04  -3.865952756041083e+03  -2.571529734959443e+00   1.623667718864460e+00   4.535341724198512e-01
2017-01-01T21:49:00.000   2.189929473558262e+04   3.581937661099735e+04  -3.861416386344847e+03  -2.572695290683206e+00   1.621762897927928e+00   4.537397183179105e-01
2017-01-01T21:49:10.000   2.187356196009579e+04   3.583558471259287e+04  -3.856877962349056e+03  -2.573859478059637e+00   1.619857214337264e+00   4.539450228813696e-01
2017-01-01T21:49:20.000   2.184781754960533e+04   3.585177375302761e+04  -3.852337486519313e+03  -2.575022296456206e+00   1.617950669127732e+00   4.541500859986637e-01
2017-01-01T21:49:30.000   2.182206151800713e+04   3.586794372356320e+04  -3.847794961306425e+03  -2.576183745245150e+00   1.616043263328390e+00   4.543549075590695e-01
2017-01-01T21:49:40.000   2.179629387926622e+04   3.588409461543192e+04  -3.843250389173396e+03  -2.577343823796607e+00   1.614134997973415e+00   4.545594874514925e-01
2017-01-01T21:49:50.000   2.177051464682430e+04   3.590022642020853e+04  -3.838703772490935e+03  -2.578502531505310e+00   1.612225874058227e+00   4.547638255691765e-01
2017-01-01T21:50:00.000   2.174472383419057e+04   3.591633912943923e+04  -3.834155113641649e+03  -2.579659867763942e+00   1.610315892583248e+00   4.549679218050032e-01
2017-01-01T21:50:10.000   2.171892145480817e+04   3.593243273472611e+04  -3.829604414996498e+03  -2.580815831969202e+00   1.608405054544003e+00   4.551717760525621e-01
2017-01-01T21:50:20.000   2.169310752238663e+04   3.594850722751612e+04  -3.825051678973422e+03  -2.581970423506640e+00   1.606493360955750e+00   4.553753882034783e-01
2017-01-01T21:50:30.000   2.166728205065548e+04   3.596456259925848e+04  -3.820496907993893e+03  -2.583123641761972e+00   1.604580812835224e+00   4.555787581494043e-01
2017-01-01T21:50:40.000   2.164144505336356e+04   3.598059884140362e+04  -3.815940104482785e+03  -2.584275486121001e+00   1.602667411200595e+00   4.557818857820090e-01
